TRANSPORTER-16 OBJECT L 
1 68426U 26067L   26104.13294854  .00006471  00000+0  31809-3 0  9997
2 68426  97.4494  63.5689 0002260 138.3566 221.7841 15.18374642  2226
