{
  "norad_id": 68426,
  "name": "TRANSPORTER-16 OBJECT L",
  "history": [
    {
      "epoch": "2026-04-14T03:11:26.753856Z",
      "apogee_km": 512.3096489377058,
      "perigee_km": 509.195182032965,
      "latitude_deg": 5.031735442963642e-05,
      "longitude_deg": 173.39366553875752,
      "height_km": 515.0008696136357,
      "semi_major_axis_km": 6888.889415485335,
      "eccentricity": 0.00022605,
      "inclination_deg": 97.4494,
      "raan_deg": 63.5689,
      "arg_perigee_deg": 138.3566,
      "mean_anomaly_deg": 221.7841,
      "mean_motion_rev_day": 15.18374642
    }
  ]
}